CCSDS_OMM_VERS = 2.0
CREATION_DATE  = 
ORIGINATOR     = 

OBJECT_NAME    = ALOS-2
OBJECT_ID      = 2014-029A
CENTER_NAME    = EARTH
REF_FRAME      = TEME
TIME_SYSTEM    = UTC
MEAN_ELEMENT_THEORY = SGP/SGP4

EPOCH          = 2026-03-28T06:00:09.410688
MEAN_MOTION    = 14.79444290
ECCENTRICITY   = .0001925
INCLINATION    = 97.9186
RA_OF_ASC_NODE = 185.5772
ARG_OF_PERICENTER = 103.9352
MEAN_ANOMALY   = 256.2073

EPHEMERIS_TYPE = 0
CLASSIFICATION_TYPE = U
NORAD_CAT_ID   = 39766
ELEMENT_SET_NO = 999
REV_AT_EPOCH   = 63961
BSTAR          = .2443561E-3
MEAN_MOTION_DOT = .1773E-4
MEAN_MOTION_DDOT = 0

CCSDS_OMM_VERS = 2.0
CREATION_DATE  = 
ORIGINATOR     = 

OBJECT_NAME    = YAOGAN-29
OBJECT_ID      = 2015-069A
CENTER_NAME    = EARTH
REF_FRAME      = TEME
TIME_SYSTEM    = UTC
MEAN_ELEMENT_THEORY = SGP/SGP4

EPOCH          = 2026-03-28T06:45:40.740192
MEAN_MOTION    = 14.83013094
ECCENTRICITY   = .00005475
INCLINATION    = 98.0123
RA_OF_ASC_NODE = 115.7594
ARG_OF_PERICENTER = 1.3901
MEAN_ANOMALY   = 358.7313

EPHEMERIS_TYPE = 0
CLASSIFICATION_TYPE = U
NORAD_CAT_ID   = 41038
ELEMENT_SET_NO = 999
REV_AT_EPOCH   = 55863
BSTAR          = .1423127E-4
MEAN_MOTION_DOT = .62E-6
MEAN_MOTION_DDOT = 0

CCSDS_OMM_VERS = 2.0
CREATION_DATE  = 
ORIGINATOR     = 

OBJECT_NAME    = ASTRO-H (HITOMI)
OBJECT_ID      = 2016-012A
CENTER_NAME    = EARTH
REF_FRAME      = TEME
TIME_SYSTEM    = UTC
MEAN_ELEMENT_THEORY = SGP/SGP4

EPOCH          = 2026-03-27T17:53:34.856448
MEAN_MOTION    = 15.10114372
ECCENTRICITY   = .00096202
INCLINATION    = 30.9986
RA_OF_ASC_NODE = 240.0182
ARG_OF_PERICENTER = 153.3747
MEAN_ANOMALY   = 206.7386

EPHEMERIS_TYPE = 0
CLASSIFICATION_TYPE = U
NORAD_CAT_ID   = 41337
ELEMENT_SET_NO = 999
REV_AT_EPOCH   = 55496
BSTAR          = .17214187E-3
MEAN_MOTION_DOT = .2973E-4
MEAN_MOTION_DDOT = 0

CCSDS_OMM_VERS = 2.0
CREATION_DATE  = 
ORIGINATOR     = 

OBJECT_NAME    = HXMT (HUIYAN)
OBJECT_ID      = 2017-034A
CENTER_NAME    = EARTH
REF_FRAME      = TEME
TIME_SYSTEM    = UTC
MEAN_ELEMENT_THEORY = SGP/SGP4

EPOCH          = 2026-03-28T04:57:29.047680
MEAN_MOTION    = 15.17692640
ECCENTRICITY   = .00319635
INCLINATION    = 43.0140
RA_OF_ASC_NODE = 273.7089
ARG_OF_PERICENTER = 349.2571
MEAN_ANOMALY   = 10.7591

EPHEMERIS_TYPE = 0
CLASSIFICATION_TYPE = U
NORAD_CAT_ID   = 42758
ELEMENT_SET_NO = 999
REV_AT_EPOCH   = 48535
BSTAR          = .28072994E-3
MEAN_MOTION_DOT = .5596E-4
MEAN_MOTION_DDOT = 0

CCSDS_OMM_VERS = 2.0
CREATION_DATE  = 
ORIGINATOR     = 

OBJECT_NAME    = SAOCOM 1A
OBJECT_ID      = 2018-076A
CENTER_NAME    = EARTH
REF_FRAME      = TEME
TIME_SYSTEM    = UTC
MEAN_ELEMENT_THEORY = SGP/SGP4

EPOCH          = 2026-03-28T06:12:06.020928
MEAN_MOTION    = 14.82157513
ECCENTRICITY   = .0001442
INCLINATION    = 97.8907
RA_OF_ASC_NODE = 275.1687
ARG_OF_PERICENTER = 86.0400
MEAN_ANOMALY   = 274.0978

EPHEMERIS_TYPE = 0
CLASSIFICATION_TYPE = U
NORAD_CAT_ID   = 43641
ELEMENT_SET_NO = 999
REV_AT_EPOCH   = 40411
BSTAR          = -.2266301E-5
MEAN_MOTION_DOT = -.7E-6
MEAN_MOTION_DDOT = 0

CCSDS_OMM_VERS = 2.0
CREATION_DATE  = 
ORIGINATOR     = 

OBJECT_NAME    = H-2A R/B
OBJECT_ID      = 2018-084L
CENTER_NAME    = EARTH
REF_FRAME      = TEME
TIME_SYSTEM    = UTC
MEAN_ELEMENT_THEORY = SGP/SGP4

EPOCH          = 2026-03-28T03:57:45.040032
MEAN_MOTION    = 15.42116050
ECCENTRICITY   = .0023805
INCLINATION    = 98.8712
RA_OF_ASC_NODE = 308.5108
ARG_OF_PERICENTER = 320.9414
MEAN_ANOMALY   = 39.0109

EPHEMERIS_TYPE = 0
CLASSIFICATION_TYPE = U
NORAD_CAT_ID   = 43682
ELEMENT_SET_NO = 999
REV_AT_EPOCH   = 40862
BSTAR          = .50864364E-3
MEAN_MOTION_DOT = .21909E-3
MEAN_MOTION_DDOT = 0

CCSDS_OMM_VERS = 2.0
CREATION_DATE  = 
ORIGINATOR     = 

OBJECT_NAME    = SAOCOM 1B
OBJECT_ID      = 2020-059A
CENTER_NAME    = EARTH
REF_FRAME      = TEME
TIME_SYSTEM    = UTC
MEAN_ELEMENT_THEORY = SGP/SGP4

EPOCH          = 2026-03-28T05:19:51.835872
MEAN_MOTION    = 14.82156397
ECCENTRICITY   = .00015393
INCLINATION    = 97.8908
RA_OF_ASC_NODE = 274.2309
ARG_OF_PERICENTER = 86.9978
MEAN_ANOMALY   = 273.1412

EPHEMERIS_TYPE = 0
CLASSIFICATION_TYPE = U
NORAD_CAT_ID   = 46265
ELEMENT_SET_NO = 999
REV_AT_EPOCH   = 30149
BSTAR          = .9443921E-4
MEAN_MOTION_DOT = .7E-5
MEAN_MOTION_DDOT = 0

CCSDS_OMM_VERS = 2.0
CREATION_DATE  = 
ORIGINATOR     = 

OBJECT_NAME    = CSS (TIANHE)
OBJECT_ID      = 2021-035A
CENTER_NAME    = EARTH
REF_FRAME      = TEME
TIME_SYSTEM    = UTC
MEAN_ELEMENT_THEORY = SGP/SGP4

EPOCH          = 2026-03-28T04:53:00.711744
MEAN_MOTION    = 15.61574783
ECCENTRICITY   = .00040982
INCLINATION    = 41.4668
RA_OF_ASC_NODE = 95.4304
ARG_OF_PERICENTER = 43.6624
MEAN_ANOMALY   = 316.4539

EPHEMERIS_TYPE = 0
CLASSIFICATION_TYPE = U
NORAD_CAT_ID   = 48274
ELEMENT_SET_NO = 999
REV_AT_EPOCH   = 28050
BSTAR          = .20558652E-3
MEAN_MOTION_DOT = .17871E-3
MEAN_MOTION_DDOT = 0

CCSDS_OMM_VERS = 2.0
CREATION_DATE  = 
ORIGINATOR     = 

OBJECT_NAME    = COSMOS 2550
OBJECT_ID      = 2021-056A
CENTER_NAME    = EARTH
REF_FRAME      = TEME
TIME_SYSTEM    = UTC
MEAN_ELEMENT_THEORY = SGP/SGP4

EPOCH          = 2026-03-28T05:33:55.969056
MEAN_MOTION    = 15.33829782
ECCENTRICITY   = .00084216
INCLINATION    = 67.1425
RA_OF_ASC_NODE = 344.7945
ARG_OF_PERICENTER = 269.6133
MEAN_ANOMALY   = 90.4056

EPHEMERIS_TYPE = 0
CLASSIFICATION_TYPE = U
NORAD_CAT_ID   = 48865
ELEMENT_SET_NO = 999
REV_AT_EPOCH   = 26630
BSTAR          = .160538E-6
MEAN_MOTION_DOT = -.186E-5
MEAN_MOTION_DDOT = 0

CCSDS_OMM_VERS = 2.0
CREATION_DATE  = 
ORIGINATOR     = 

OBJECT_NAME    = CZ-2C R/B
OBJECT_ID      = 2022-058K
CENTER_NAME    = EARTH
REF_FRAME      = TEME
TIME_SYSTEM    = UTC
MEAN_ELEMENT_THEORY = SGP/SGP4

EPOCH          = 2026-03-28T02:02:14.052768
MEAN_MOTION    = 15.55565051
ECCENTRICITY   = .00415014
INCLINATION    = 50.1874
RA_OF_ASC_NODE = 223.5679
ARG_OF_PERICENTER = 279.7011
MEAN_ANOMALY   = 79.9274

EPHEMERIS_TYPE = 0
CLASSIFICATION_TYPE = U
NORAD_CAT_ID   = 52794
ELEMENT_SET_NO = 999
REV_AT_EPOCH   = 21299
BSTAR          = .54664922E-3
MEAN_MOTION_DOT = .39381E-3
MEAN_MOTION_DDOT = 0

CCSDS_OMM_VERS = 2.0
CREATION_DATE  = 
ORIGINATOR     = 

OBJECT_NAME    = CZ-2C R/B
OBJECT_ID      = 2022-132E
CENTER_NAME    = EARTH
REF_FRAME      = TEME
TIME_SYSTEM    = UTC
MEAN_ELEMENT_THEORY = SGP/SGP4

EPOCH          = 2026-03-28T06:17:02.567328
MEAN_MOTION    = 15.63589754
ECCENTRICITY   = .00177881
INCLINATION    = 97.2961
RA_OF_ASC_NODE = 91.1671
ARG_OF_PERICENTER = 30.7941
MEAN_ANOMALY   = 329.4358

EPHEMERIS_TYPE = 0
CLASSIFICATION_TYPE = U
NORAD_CAT_ID   = 54039
ELEMENT_SET_NO = 999
REV_AT_EPOCH   = 19327
BSTAR          = .54534549E-3
MEAN_MOTION_DOT = .51097E-3
MEAN_MOTION_DDOT = 0

CCSDS_OMM_VERS = 2.0
CREATION_DATE  = 
ORIGINATOR     = 

OBJECT_NAME    = GSLV R/B
OBJECT_ID      = 2022-138AN
CENTER_NAME    = EARTH
REF_FRAME      = TEME
TIME_SYSTEM    = UTC
MEAN_ELEMENT_THEORY = SGP/SGP4

EPOCH          = 2026-03-28T05:44:13.934688
MEAN_MOTION    = 14.96890474
ECCENTRICITY   = .00240336
INCLINATION    = 87.3863
RA_OF_ASC_NODE = 160.1529
ARG_OF_PERICENTER = 85.6352
MEAN_ANOMALY   = 274.7625

EPHEMERIS_TYPE = 0
CLASSIFICATION_TYPE = U
NORAD_CAT_ID   = 54149
ELEMENT_SET_NO = 999
REV_AT_EPOCH   = 18670
BSTAR          = .20801423E-3
MEAN_MOTION_DOT = .2428E-4
MEAN_MOTION_DDOT = 0

